OBJECT_NAME,OBJECT_ID,EPOCH,MEAN_MOTION,ECCENTRICITY,INCLINATION,RA_OF_ASC_NODE,ARG_OF_PERICENTER,MEAN_ANOMALY,EPHEMERIS_TYPE,CLASSIFICATION_TYPE,NORAD_CAT_ID,ELEMENT_SET_NO,REV_AT_EPOCH,BSTAR,MEAN_MOTION_DOT,MEAN_MOTION_DDOT
ONEWEB-0365,2021-090N,2026-07-05T18:17:01.629888,13.19725809,.00019715,87.9193,301.2682,103.1576,256.9777,0,U,49291,999,22887,-.13059353E-4,.8E-7,0
ONEWEB-0366,2021-090P,2026-07-06T07:30:51.954912,13.14502153,.0002017,87.8972,285.8956,99.4280,260.7077,0,U,49292,999,23007,-.30238745E-3,-.99E-6,0
ONEWEB-0367,2021-090Q,2026-07-06T06:05:34.938240,13.20773160,.00021536,87.9195,270.6417,103.6515,256.4858,0,U,49293,999,23234,.21965364E-3,.102E-5,0
ONEWEB-0368,2021-090R,2026-07-06T05:28:00.583392,13.20771639,.00013735,87.9182,270.6550,109.5043,250.6239,0,U,49294,999,23349,.76189773E-4,.44E-6,0
ONEWEB-0369,2021-090S,2026-07-05T18:10:12.324576,13.19725847,.00018986,87.9182,301.2753,102.6520,257.4825,0,U,49295,999,22886,.46521408E-4,.32E-6,0
ONEWEB-0370,2021-090T,2026-07-06T06:18:54.952992,13.20771872,.00023365,87.9194,270.6393,98.1069,262.0330,0,U,49296,999,23238,.28042243E-3,.127E-5,0
ONEWEB-0371,2021-090U,2026-07-05T20:10:44.383872,13.19724428,.00020194,87.9191,301.2524,103.1497,256.9862,0,U,49297,999,22891,-.4097995E-5,.11E-6,0
ONEWEB-0372,2021-090V,2026-07-06T06:04:08.933952,13.20773802,.00020371,87.9195,270.6432,100.0376,260.0987,0,U,49298,999,23235,.26586401E-3,.121E-5,0
ONEWEB-0373,2021-090W,2026-07-06T04:51:38.011392,13.20772708,.0002106,87.9190,270.6531,97.4660,262.6713,0,U,49299,999,23353,.68861159E-4,.41E-6,0
ONEWEB-0374,2021-090X,2026-07-06T07:12:35.111232,13.14502770,.00017318,87.8977,285.8897,84.0453,276.0874,0,U,49300,999,23007,-.31749938E-3,-.105E-5,0
ONEWEB-0375,2021-090Y,2026-07-06T04:34:40.120032,13.20772503,.00018638,87.9192,270.6475,83.2329,276.9016,0,U,49301,999,23303,.3686991E-3,.163E-5,0
ONEWEB-0376,2021-090Z,2026-07-05T20:08:28.061952,13.19725809,.00019183,87.9191,301.2525,106.2410,253.8934,0,U,49302,999,22891,.10683763E-3,.56E-6,0
ONEWEB-0377,2021-090AA,2026-07-06T06:04:34.146336,13.20773282,.00020063,87.9193,270.6370,93.2610,266.8752,0,U,49303,999,23303,.20194589E-3,.95E-6,0
ONEWEB-0378,2021-090AB,2026-07-06T04:44:34.512288,13.20771245,.00019033,87.9190,270.6522,96.8628,263.2722,0,U,49304,999,23229,.20258636E-3,.95E-6,0
ONEWEB-0379,2021-090AC,2026-07-06T07:05:44.230848,13.14502588,.0001903,87.8975,285.9009,98.2940,261.8405,0,U,49305,999,23007,-.87865763E-4,-.2E-6,0
ONEWEB-0380,2021-090AD,2026-07-05T18:14:45.452256,13.19725958,.00020254,87.9185,301.2723,95.3263,264.8101,0,U,49306,999,22887,-.19113694E-4,.5E-7,0
ONEWEB-0381,2021-090AE,2026-07-06T05:59:30.043392,13.20773684,.00019107,87.9193,270.6423,92.2306,267.9046,0,U,49307,999,23234,.2282243E-3,.106E-5,0
ONEWEB-0382,2021-090AF,2026-07-06T05:40:07.680000,13.20771863,.00018223,87.9193,270.6388,93.8761,266.2581,0,U,49308,999,23233,.16213869E-3,.79E-6,0
ONEWEB-0383,2021-090AG,2026-07-06T06:56:36.600000,13.14502322,.00018205,87.8979,285.8940,99.4826,260.6509,0,U,49309,999,23010,-.53101675E-4,-.7E-7,0
ONEWEB-0384,2021-090AH,2026-07-06T07:11:59.397792,13.20813392,.00016309,87.9194,270.6701,93.2283,266.9037,0,U,49310,999,23235,.23782301E-3,.11E-5,0
ONEWEB-0385,2021-090AJ,2026-07-06T05:30:23.764608,13.20774060,.00019057,87.9192,270.6457,95.2964,264.8386,0,U,49311,999,23231,.2750431E-4,.24E-6,0
ONEWEB-0386,2021-090AK,2026-07-06T05:54:39.587328,13.20773495,.00018185,87.9197,270.6341,95.9412,264.1929,0,U,49312,999,23233,.28599584E-3,.129E-5,0
ONEWEB-0387,2021-090AL,2026-07-06T07:21:54.945216,13.20773421,.00021272,87.9183,270.6416,89.1607,270.9770,0,U,49313,999,23234,-.17319858E-3,-.57E-6,0
ONEWEB-0388,2021-090AM,2026-07-05T18:07:55.852320,13.19726254,.00018316,87.9186,301.2714,97.7238,262.4103,0,U,49314,999,22886,-.8024373E-5,.1E-6,0
ONEWEB-0389,2021-132A,2026-07-06T00:44:28.401792,13.17650175,.00018875,87.9138,2.1187,79.9249,280.2096,0,U,50469,999,22056,.11223245E-4,.17E-6,0
ONEWEB-0390,2021-132B,2026-07-06T00:46:54.214752,13.17650288,.00020808,87.9138,2.1193,91.5656,268.5714,0,U,50470,999,22056,-.55662448E-4,-.9E-7,0
ONEWEB-0391,2021-132C,2026-07-06T00:49:20.020800,13.17650355,.00023531,87.9139,2.1287,72.2557,287.8831,0,U,50471,999,22056,.75149556E-4,.42E-6,0
ONEWEB-0392,2021-132D,2026-07-05T23:43:43.932288,13.17650026,.00019561,87.9146,2.1078,79.2205,280.9147,0,U,50472,999,22059,.13337117E-3,.65E-6,0
ONEWEB-0393,2021-132E,2026-07-06T00:57:49.753152,13.17647727,.00019149,87.9138,2.1131,85.0501,275.0849,0,U,50473,999,22059,-.84158307E-4,-.2E-6,0
ONEWEB-0394,2021-132F,2026-07-05T20:09:00.837792,13.18685090,.00017353,87.9188,331.7323,93.6385,266.4946,0,U,50474,999,22405,-.42310479E-3,-.154E-5,0
