[
  {
    "name": "ONEWEB-0365",
    "noradId": "49291",
    "line1": "1 49291U 21090N   26186.76182442  .00000008  00000+0 -13059-4 0  9994",
    "line2": "2 49291  87.9193 301.2682 0001971 103.1576 256.9777 13.19725809228872"
  },
  {
    "name": "ONEWEB-0366",
    "noradId": "49292",
    "line1": "1 49292U 21090P   26187.31310133 -.00000099  00000+0 -30239-3 0  9996",
    "line2": "2 49292  87.8972 285.8956 0002017  99.4280 260.7077 13.14502153230070"
  },
  {
    "name": "ONEWEB-0367",
    "noradId": "49293",
    "line1": "1 49293U 21090Q   26187.25387660  .00000102  00000+0  21965-3 0  9998",
    "line2": "2 49293  87.9195 270.6417 0002153 103.6515 256.4858 13.20773160232349"
  },
  {
    "name": "ONEWEB-0368",
    "noradId": "49294",
    "line1": "1 49294U 21090R   26187.22778453  .00000044  00000+0  76190-4 0  9996",
    "line2": "2 49294  87.9182 270.6550 0001373 109.5043 250.6239 13.20771639233493"
  },
  {
    "name": "ONEWEB-0369",
    "noradId": "49295",
    "line1": "1 49295U 21090S   26186.75708709  .00000032  00000+0  46521-4 0  9993",
    "line2": "2 49295  87.9182 301.2753 0001898 102.6520 257.4825 13.19725847228865"
  },
  {
    "name": "ONEWEB-0370",
    "noradId": "49296",
    "line1": "1 49296U 21090T   26187.26313603  .00000127  00000+0  28042-3 0  9998",
    "line2": "2 49296  87.9194 270.6393 0002336  98.1069 262.0330 13.20771872232389"
  },
  {
    "name": "ONEWEB-0371",
    "noradId": "49297",
    "line1": "1 49297U 21090U   26186.84079148  .00000011  00000+0 -40980-5 0  9995",
    "line2": "2 49297  87.9191 301.2524 0002019 103.1497 256.9862 13.19724428228913"
  },
  {
    "name": "ONEWEB-0372",
    "noradId": "49298",
    "line1": "1 49298U 21090V   26187.25288118  .00000121  00000+0  26586-3 0  9996",
    "line2": "2 49298  87.9195 270.6432 0002037 100.0376 260.0987 13.20773802232356"
  },
  {
    "name": "ONEWEB-0373",
    "noradId": "49299",
    "line1": "1 49299U 21090W   26187.20252328  .00000041  00000+0  68861-4 0  9990",
    "line2": "2 49299  87.9190 270.6531 0002106  97.4660 262.6713 13.20772708233534"
  },
  {
    "name": "ONEWEB-0374",
    "noradId": "49300",
    "line1": "1 49300U 21090X   26187.30040638 -.00000105  00000+0 -31750-3 0  9992",
    "line2": "2 49300  87.8977 285.8897 0001731  84.0453 276.0874 13.14502770230073"
  },
  {
    "name": "ONEWEB-0375",
    "noradId": "49301",
    "line1": "1 49301U 21090Y   26187.19074213  .00000163  00000+0  36870-3 0  9996",
    "line2": "2 49301  87.9192 270.6475 0001863  83.2329 276.9016 13.20772503233033"
  },
  {
    "name": "ONEWEB-0376",
    "noradId": "49302",
    "line1": "1 49302U 21090Z   26186.83921368  .00000056  00000+0  10684-3 0  9995",
    "line2": "2 49302  87.9191 301.2525 0001918 106.2410 253.8934 13.19725809228917"
  },
  {
    "name": "ONEWEB-0377",
    "noradId": "49303",
    "line1": "1 49303U 21090AA  26187.25317299  .00000095  00000+0  20195-3 0  9996",
    "line2": "2 49303  87.9193 270.6370 0002006  93.2610 266.8752 13.20773282233034"
  },
  {
    "name": "ONEWEB-0378",
    "noradId": "49304",
    "line1": "1 49304U 21090AB  26187.19762167  .00000095  00000+0  20259-3 0  9999",
    "line2": "2 49304  87.9190 270.6522 0001903  96.8628 263.2722 13.20771245232296"
  },
  {
    "name": "ONEWEB-0379",
    "noradId": "49305",
    "line1": "1 49305U 21090AC  26187.29565082 -.00000020  00000+0 -87866-4 0  9996",
    "line2": "2 49305  87.8975 285.9009 0001903  98.2940 261.8405 13.14502588230070"
  },
  {
    "name": "ONEWEB-0380",
    "noradId": "49306",
    "line1": "1 49306U 21090AD  26186.76024829  .00000005  00000+0 -19114-4 0  9990",
    "line2": "2 49306  87.9185 301.2723 0002025  95.3263 264.8101 13.19725958228876"
  },
  {
    "name": "ONEWEB-0381",
    "noradId": "49307",
    "line1": "1 49307U 21090AE  26187.24965328  .00000106  00000+0  22822-3 0  9993",
    "line2": "2 49307  87.9193 270.6423 0001910  92.2306 267.9046 13.20773684232348"
  },
  {
    "name": "ONEWEB-0382",
    "noradId": "49308",
    "line1": "1 49308U 21090AF  26187.23620000  .00000079  00000+0  16214-3 0  9995",
    "line2": "2 49308  87.9193 270.6388 0001822  93.8761 266.2581 13.20771863232335"
  },
  {
    "name": "ONEWEB-0383",
    "noradId": "49309",
    "line1": "1 49309U 21090AG  26187.28931250 -.00000007  00000+0 -53102-4 0  9994",
    "line2": "2 49309  87.8979 285.8940 0001820  99.4826 260.6509 13.14502322230107"
  },
  {
    "name": "ONEWEB-0384",
    "noradId": "49310",
    "line1": "1 49310U 21090AH  26187.29999303  .00000110  00000+0  23782-3 0  9993",
    "line2": "2 49310  87.9194 270.6701 0001630  93.2283 266.9037 13.20813392232357"
  },
  {
    "name": "ONEWEB-0385",
    "noradId": "49311",
    "line1": "1 49311U 21090AJ  26187.22944172  .00000024  00000+0  27504-4 0  9992",
    "line2": "2 49311  87.9192 270.6457 0001905  95.2964 264.8386 13.20774060232315"
  },
  {
    "name": "ONEWEB-0386",
    "noradId": "49312",
    "line1": "1 49312U 21090AK  26187.24629152  .00000129  00000+0  28600-3 0  9996",
    "line2": "2 49312  87.9197 270.6341 0001818  95.9412 264.1929 13.20773495232330"
  },
  {
    "name": "ONEWEB-0387",
    "noradId": "49313",
    "line1": "1 49313U 21090AL  26187.30688594 -.00000057  00000+0 -17320-3 0  9998",
    "line2": "2 49313  87.9183 270.6416 0002127  89.1607 270.9770 13.20773421232343"
  },
  {
    "name": "ONEWEB-0388",
    "noradId": "49314",
    "line1": "1 49314U 21090AM  26186.75550755  .00000010  00000+0 -80244-5 0  9999",
    "line2": "2 49314  87.9186 301.2714 0001831  97.7238 262.4103 13.19726254228863"
  },
  {
    "name": "ONEWEB-0389",
    "noradId": "50469",
    "line1": "1 50469U 21132A   26187.03088428  .00000017  00000+0  11223-4 0  9990",
    "line2": "2 50469  87.9138   2.1187 0001887  79.9249 280.2096 13.17650175220563"
  },
  {
    "name": "ONEWEB-0390",
    "noradId": "50470",
    "line1": "1 50470U 21132B   26187.03257193 -.00000009  00000+0 -55662-4 0  9997",
    "line2": "2 50470  87.9138   2.1193 0002080  91.5656 268.5714 13.17650288220561"
  },
  {
    "name": "ONEWEB-0391",
    "noradId": "50471",
    "line1": "1 50471U 21132C   26187.03425950  .00000042  00000+0  75150-4 0  9995",
    "line2": "2 50471  87.9139   2.1287 0002353  72.2557 287.8831 13.17650355220565"
  },
  {
    "name": "ONEWEB-0392",
    "noradId": "50472",
    "line1": "1 50472U 21132D   26186.98870292  .00000065  00000+0  13337-3 0  9995",
    "line2": "2 50472  87.9146   2.1078 0001956  79.2205 280.9147 13.17650026220599"
  },
  {
    "name": "ONEWEB-0393",
    "noradId": "50473",
    "line1": "1 50473U 21132E   26187.04015918 -.00000020  00000+0 -84158-4 0  9993",
    "line2": "2 50473  87.9138   2.1131 0001914  85.0501 275.0849 13.17647727220597"
  },
  {
    "name": "ONEWEB-0394",
    "noradId": "50474",
    "line1": "1 50474U 21132F   26186.83959303 -.00000154  00000+0 -42310-3 0  9996",
    "line2": "2 50474  87.9188 331.7323 0001735  93.6385 266.4946 13.18685090224056"
  }
]